satname,norad_id,inclination_deg,eccentricity,mean_motion_rev_per_day,perigee_km,apogee_km,l1,l2
STARLINK-1316,45415,53.1555,0.0002612,15.40694044,442.2777718280049,445.84168739955385,1 45415U 20019BH  26178.81669457  .00052757  00000+0  12739-2 0  9990,2 45415  53.1555 333.7260 0002612 152.9182 207.1960 15.40694044346913
STARLINK-1286,45417,53.0454,0.0003804,15.66353077,366.78338718715986,371.9168753966469,1 45417U 20019BK  26178.78785876  .00060130  00000+0  57028-3 0  9997,2 45417  53.0454 316.4349 0003804 317.6856  42.3865 15.66353077347381
STARLINK-1308,45419,53.0457,0.0005534,15.67735572,361.6508727337914,369.11460037821234,1 45419U 20019BM  26178.85843763  .00051211  00000+0  46040-3 0  9999,2 45419  53.0457 335.2688 0005534  99.1991 260.9651 15.67735572346874
STARLINK-1329,45531,53.0396,0.0002656,15.76078898,339.77805105948937,343.3475555950172,1 45531U 20025A   26178.93969465  .00074170  00000+0  46624-3 0  9995,2 45531  53.0396 257.4130 0002656 329.1072  30.9791 15.76078898342750
STARLINK-1338,45532,53.0437,0.0002265,15.73159098,348.3508949446532,351.3986842853483,1 45532U 20025B   26178.95859551  .00064308  00000+0  45981-3 0  9999,2 45532  53.0437 264.6321 0002265  52.6083 307.5141 15.73159098342655
STARLINK-1350,45535,53.0695,0.0001273,15.38922496,448.4252261143056,450.16349013808394,1 45535U 20025E   26178.45643665  .00049134  00000+0  12587-2 0  9999,2 45535  53.0695 236.5920 0001273  42.5707 317.5395 15.38922496343043
STARLINK-1362,45538,53.1551,0.0003243,15.39137385,446.444931985061,450.8727917810784,1 45538U 20025H   26178.74772177  .00022656  00000+0  58378-3 0  9994,2 45538  53.1551 306.6271 0003243 277.5580  82.5056 15.39137385342075
STARLINK-1368,45540,53.1569,0.0002237,15.39293077,446.6714714248428,449.72557393769057,1 45540U 20025K   26178.62959769  .00053842  00000+0  13610-2 0  9998,2 45540  53.1569 307.5363 0002237 258.5544 101.5209 15.39293077342040
STARLINK-1371,45542,53.0435,0.0001726,15.70338781,356.7653754797575,359.090665124766,1 45542U 20025M   26178.53911056  .00052443  00000+0  42375-3 0  9994,2 45542  53.0435 277.0128 0001726  46.3786 313.7374 15.70338781342447
STARLINK-1372,45543,53.1553,0.0001474,15.39666611,446.0883607675023,448.1004389841846,1 45543U 20025N   26178.71195141  .00060015  00000+0  14963-2 0  9999,2 45543  53.1553 306.5803 0001474 250.2608 109.8238 15.39666611341169
STARLINK-1373,45544,53.0442,0.0002302,15.7207811,351.4091359501326,354.5081323801023,1 45544U 20025P   26178.52204762  .00057003  00000+0  42760-3 0  9999,2 45544  53.0442 271.9265 0002302  42.8441 317.2756 15.72078110342512
STARLINK-1327,45555,53.0394,0.0002125,15.73754708,346.7477991763644,349.6064826862603,1 45555U 20025AA  26178.89623091  .00062355  00000+0  43487-3 0  9994,2 45555  53.0394 247.3861 0002125  53.8234 306.2980 15.73754708342886
STARLINK-1356,45564,53.042,0.0003325,15.66885926,365.5772739186441,370.0633355262853,1 45564U 20025AK  26178.64775740  .00043687  00000+0  40781-3 0  9997,2 45564  53.0420 262.3286 0003325   6.1195 353.9860 15.66885926342654
STARLINK-1357,45565,53.0412,0.0001615,15.71806202,352.64769285229704,354.82208747281857,1 45565U 20025AL  26178.81317855  .00055143  00000+0  41867-3 0  9992,2 45565  53.0412 217.5730 0001615 160.5807 199.5272 15.71806202343307
STARLINK-1361,45567,53.0409,0.0002113,15.70390002,356.358247602906,359.2048467809482,1 45567U 20025AN  26178.89514987  .00056249  00000+0  45297-3 0  9996,2 45567  53.0409 259.3687 0002113  56.5040 303.6178 15.70390002342720
STARLINK-1376,45570,53.1566,6.95e-05,15.40186742,445.08345014062706,446.03194370349865,1 45570U 20025AR  26178.55388778  .00033539  00000+0  82921-3 0  9992,2 45570  53.1566 283.6678 0000695 206.9852 153.1117 15.40186742342377
STARLINK-1320,45572,53.0367,0.0008052,15.93639349,286.73751292535417,297.47927610868373,1 45572U 20025AT  26179.00002315  .00225351  30525-4  61547-3 0  9991,2 45572  53.0367 152.7763 0008052  46.8862  27.6669 15.93639349  6025
STARLINK-1321,45573,53.0406,0.0001841,15.70886998,355.1209148046446,357.60055687097974,1 45573U 20025AU  26178.89771657  .00055685  00000+0  43932-3 0  9999,2 45573  53.0406 243.1725 0001841  62.2319 297.8884 15.70886998342641
STARLINK-1331,45578,53.0449,0.0001574,15.70628521,356.03944971343844,358.15970218754774,1 45578U 20025AZ  26178.92359699  .00054799  00000+0  43715-3 0  9990,2 45578  53.0449 249.9859 0001574  60.0046 300.1126 15.70628521342868
STARLINK-1333,45580,53.1559,0.0002108,15.37073074,453.32944041215524,456.21019392627386,1 45580U 20025BB  26178.70578155  .00049579  00000+0  13485-2 0  9999,2 45580  53.1559 284.8974 0002108 312.5529  47.5296 15.37073074342371
STARLINK-1335,45581,53.1528,0.000219,15.38938009,447.75327879787164,450.74367363645524,1 45581U 20025BC  26178.71350898  .00099976  00000+0  25326-2 0  9996,2 45581  53.1528 281.3414 0002190 240.5344 119.5443 15.38938009342413
STARLINK-1337,45582,53.0416,0.0001772,15.77536124,336.23401873065086,338.6140135547721,1 45582U 20025BD  26178.85580353  .00077683  00000+0  45757-3 0  9995,2 45582  53.0416 238.2974 0001772  82.6967 277.4254 15.77536124343007
STARLINK-1347,45586,53.0352,0.000136,15.70710946,355.94798717987396,357.7799074375416,1 45586U 20025BH  26178.35340807  .00058198  00000+0  46219-3 0  9996,2 45586  53.0352 212.1796 0001360  26.7582 333.3504 15.70710946343322
STARLINK-1364,45589,53.0405,0.0003504,15.71534202,352.1525126795568,356.8707528413952,1 45589U 20025BL  26178.47865883  .00061289  00000+0  46973-3 0  9990,2 45589  53.0405 248.1561 0003504   4.6809 355.4241 15.71534202342830
STARLINK-1365,45590,53.0444,0.0001079,15.67032677,366.67128682022485,368.1269735171145,1 45590U 20025BM  26178.57092964  .00046055  00000+0  42706-3 0  9999,2 45590  53.0444 282.9702 0001079  49.1091 311.0017 15.67032677342372
STARLINK-1443,45660,53.1331,0.0001383,15.34182354,462.40402877963515,464.2963841409419,1 45660U 20035D   26178.67245644  .00029315  00000+0  88139-3 0  9994,2 45660  53.1331 274.1121 0001383  30.8088 329.2995 15.34182354335599
STARLINK-1446,45663,53.0192,0.0002001,15.48796448,418.88539730938555,421.6061100874167,1 45663U 20035G   26178.47693387  .00032096  00000+0  59324-3 0  9990,2 45663  53.0192 195.6915 0002001 331.8237  28.2661 15.48796448336656
STARLINK-1448,45665,53.0409,0.0001931,15.74901825,343.612343803833,346.2087847731609,1 45665U 20035J   26178.88034552  .00068714  00000+0  45533-3 0  9993,2 45665  53.0409 233.4431 0001931  64.7981 295.3238 15.74901825336150
STARLINK-1451,45668,53.0508,3.62e-05,15.15159852,520.243575291759,520.7430361258921,1 45668U 20035M   26178.55760535  .00026720  00000+0  14187-2 0  9998,2 45668  53.0508 288.0190 0000362 287.0893  73.0060 15.15159852335377
STARLINK-1452,45669,53.0215,0.0007541,15.624291,375.54597119896425,385.7395628435861,1 45669U 20035N   26178.51026787  .00094461  00000+0  10373-2 0  9999,2 45669  53.0215 211.8390 0007541  14.3226 345.7999 15.62429100336432
STARLINK-1453,45670,53.0363,0.0001582,15.7528889,342.74582509628453,344.87264888566824,1 45670U 20035P   26178.90626939  .00082149  00000+0  53363-3 0  9996,2 45670  53.0363 193.5309 0001582  82.4602 277.6596 15.75288890336616
STARLINK-1454,45671,53.0417,0.0001428,15.73373124,348.3039617115428,350.22530761840335,1 45671U 20035Q   26178.46133582  .00075579  00000+0  53402-3 0  9998,2 45671  53.0417 236.9922 0001428  62.2561 297.8601 15.73373124336062
STARLINK-1456,45673,53.0399,0.000143,15.70155294,357.4894582596635,359.41612293977505,1 45673U 20035S   26178.57853057  .00050929  00000+0  41487-3 0  9990,2 45673  53.0399 231.2463 0001430  55.9066 304.2086 15.70155294336178
STARLINK-1458,45675,53.0437,0.0004343,15.60912727,382.0821011055741,387.95657870241484,1 45675U 20035U   26178.90353476  .00147903  00000+0  17089-2 0  9998,2 45675  53.0437 245.5174 0004343  10.2279 349.8821 15.60912727335965
STARLINK-1460,45676,53.1562,0.0003058,15.36895542,453.2063380054724,457.38566562938377,1 45676U 20035V   26178.61868585  .00048508  00000+0  13273-2 0  9991,2 45676  53.1562 272.5206 0003058 304.9372  55.1344 15.36895542335573
STARLINK-1392,45677,53.1528,0.0003807,15.40353651,442.4671623973927,447.662348213883,1 45677U 20035W   26178.52820480  .00051248  00000+0  12518-2 0  9990,2 45677  53.1528 271.0965 0003807 320.3543  39.7183 15.40353651335626
STARLINK-1394,45679,53.0377,0.0001378,15.68921256,361.0559905851642,362.91356814755727,1 45679U 20035Y   26178.84374691  .00046785  00000+0  40163-3 0  9993,2 45679  53.0377 220.3018 0001378  60.4542 299.6611 15.68921256336342
STARLINK-1402,45685,53.0388,0.0004639,15.60588864,382.8171331355543,389.0928576888973,1 45685U 20035AE  26178.82120638  .00029918  00000+0  36004-3 0  9996,2 45685  53.0388 212.3577 0004639 314.8480  45.2155 15.60588864336469
STARLINK-1404,45686,53.1547,0.0003996,15.46520671,424.1942448374939,429.63284123148696,1 45686U 20035AF  26178.89337167  .00030673  00000+0  61385-3 0  9991,2 45686  53.1547 250.1136 0003996 311.3830  48.6834 15.46520671335955
STARLINK-1413,45689,53.1555,0.000383,15.36860318,452.78316895989155,458.0176586188554,1 45689U 20035AJ  26178.91832002  .00046383  00000+0  12713-2 0  9990,2 45689  53.1555 255.7671 0003830 329.7627  30.3155 15.36860318335796
STARLINK-1417,45693,53.0518,0.0002431,15.17758289,510.94217275178744,514.2924574998015,1 45693U 20035AN  26178.95180189  .00026925  00000+0  13277-2 0  9997,2 45693  53.0518 272.5169 0002431 222.5249 137.5557 15.17758289335613
STARLINK-1420,45695,53.0426,0.0001698,15.72638308,350.2173906538919,352.5027278552161,1 45695U 20035AQ  26178.37197163  .00066117  00000+0  48312-3 0  9991,2 45695  53.0426 205.3620 0001698  88.6906 271.4306 15.72638308336514
STARLINK-1422,45696,53.1547,0.0001383,15.38667825,449.103356188838,450.9920320752344,1 45696U 20035AR  26179.00002315  .00046871  00000+0  12117-2 0  9995,2 45696  53.1547 255.2673 0001383  77.1543  31.0759 15.38667825  5684
